IRIDIUM 57              
1 25273U 98019B   24182.60192523  .00000708  00000+0  24056-3 0  9995
2 25273  86.3959 292.5015 0002180  94.9520 265.1926 14.35265064374343
IRIDIUM 63              
1 25286U 98021B   24182.82950544  .00000694  00000+0  23327-3 0  9995
2 25286  86.3987 229.3058 0002215  88.8825 271.2625 14.35816199373683
IRIDIUM 69              
1 25319U 98026A   24182.71892014  .00000832  00000+0  25783-3 0  9994
2 25319  86.3974 243.6974 0004621  98.3220 261.8503 14.40058975372708
IRIDIUM 71              
1 25320U 98026B   24182.64654851  .00000734  00000+0  22520-3 0  9990
2 25320  86.3976 238.4862 0003588 128.5447 231.6074 14.40368982373226
IRIDIUM 73              
1 25344U 98032C   24182.54574277  .00001018  00000+0  25465-3 0  9992
2 25344  86.4438 195.9573 0002969  93.3607 266.7937 14.50600846379560
IRIDIUM 82              
1 25467U 98051A   24182.52460656  .00023320  00000+0  11550-2 0  9991
2 25467  86.3757 279.4416 0126891 170.8420 189.5178 15.10751311370503
IRIDIUM 2               
1 25527U 98066A   24182.58225229  .19665851 -15281-5  32382-3 0  9997
2 25527  85.4677 293.8012 0015479 271.0324 195.8112 16.47037803409593
